NORAD_CAT_ID,OBJECT_NAME,OBJECT_TYPE,EPOCH,MEAN_MOTION,ECCENTRICITY,INCLINATION,RA_OF_ASC_NODE,ARG_OF_PERICENTER,MEAN_ANOMALY,BSTAR,MEAN_MOTION_DOT,MEAN_MOTION_DDOT,TLE_LINE0,TLE_LINE1,TLE_LINE2,SEMIMAJOR_AXIS,PERIOD,APOGEE,PERIGEE,DECAYED
50185.0,STARLINK-3279,PAYLOAD,2024-07-04 13:24:45,15.08846919,0.0001215,53.2157,121.6101,88.9833,271.1298,5.0126e-05,5.1e-06,0.0,0 STARLINK-3279,1 50185U 21125AF  24186.55886272  .00000510  00000-0  50126-4 0  9998,2 50185  53.2157 121.6101 0001215  88.9833 271.1298 15.08846919144048,6917.859,95.437,540.565,538.884,0.0
50185.0,STARLINK-3279,PAYLOAD,2024-07-04 22:57:05,15.08837134,0.0001425,53.2169,119.8265,96.3441,263.7713,9.2012e-05,1.177e-05,0.0,0 STARLINK-3279,1 50185U 21125AF  24186.95630913  .00001177  00000-0  92012-4 0  9991,2 50185  53.2169 119.8265 0001425  96.3441 263.7713 15.08837134144107,6917.889,95.438,540.74,538.768,0.0
50185.0,STARLINK-3279,PAYLOAD,2024-07-05 05:18:37,15.08841251,0.0001485,53.2153,118.6357,94.7177,265.3985,6.9258e-05,8.14e-06,0.0,0 STARLINK-3279,1 50185U 21125AF  24187.22126702  .00000814  00000-0  69258-4 0  9991,2 50185  53.2153 118.6357 0001485  94.7177 265.3985 15.08841251143667,6917.877,95.437,540.769,538.714,0.0
50185.0,STARLINK-3279,PAYLOAD,2024-07-05 22:47:52,15.0883517,0.0001413,53.2156,115.3634,95.385,264.7304,8.3401e-05,1.039e-05,0.0,0 STARLINK-3279,1 50185U 21125AF  24187.94991026  .00001039  00000-0  83401-4 0  9995,2 50185  53.2156 115.3634 0001413  95.3850 264.7304 15.08835170144255,6917.895,95.438,540.738,538.783,0.0
50185.0,STARLINK-3279,PAYLOAD,2024-07-06 01:58:38,15.08834167,0.0001397,53.2166,114.7667,99.7552,260.3598,5.8042e-05,6.36e-06,0.0,0 STARLINK-3279,1 50185U 21125AF  24188.08239136  .00000636  00000-0  58042-4 0  9993,2 50185  53.2166 114.7667 0001397  99.7552 260.3598 15.08834167143793,6917.898,95.438,540.73,538.797,0.0
50185.0,STARLINK-3279,PAYLOAD,2024-07-06 22:38:39,15.08833681,0.0001523,53.2169,110.9003,101.5341,258.5823,-2.1623e-05,-6.32e-06,0.0,0 STARLINK-3279,1 50185U 21125AF  24188.94351575 -.00000632  00000-0 -21623-4 0  9993,2 50185  53.2169 110.9003 0001523 101.5341 258.5823 15.08833681144406,6917.9,95.438,540.818,538.711,0.0
50185.0,STARLINK-3279,PAYLOAD,2024-07-07 01:49:25,15.08834642,0.0001337,53.2167,110.3094,94.8339,265.2806,-1.0447e-05,-4.54e-06,0.0,0 STARLINK-3279,1 50185U 21125AF  24189.07599537 -.00000454  00000-0 -10447-4 0  9994,2 50185  53.2167 110.3094 0001337  94.8339 265.2806 15.08834642144428,6917.897,95.438,540.687,538.837,0.0
50185.0,STARLINK-3279,PAYLOAD,2024-07-07 19:18:40,15.08836141,0.0001273,53.2168,107.0398,98.8229,261.2907,7.4976e-05,9.05e-06,0.0,0 STARLINK-3279,1 50185U 21125AF  24189.80463311  .00000905  00000-0  74976-4 0  9991,2 50185  53.2168 107.0398 0001273  98.8229 261.2907 15.08836141144053,6917.892,95.438,540.638,538.877,0.0
50185.0,STARLINK-3279,PAYLOAD,2024-07-08 11:12:30,15.08849197,0.0001323,53.2175,104.0655,87.9069,272.2075,0.00015296,2.148e-05,0.0,0 STARLINK-3279,1 50185U 21125AF  24190.46702318  .00002148  00000-0  15296-3 0  9998,2 50185  53.2175 104.0655 0001323  87.9069 272.2075 15.08849197144155,6917.852,95.437,540.633,538.802,0.0
50185.0,STARLINK-3279,PAYLOAD,2024-07-08 22:20:13,15.08836549,0.0002285,53.2165,101.9832,80.0775,280.0475,9.0221e-05,1.148e-05,0.0,0 STARLINK-3279,1 50185U 21125AF  24190.93071692  .00001148  00000-0  90221-4 0  9995,2 50185  53.2165 101.9832 0002285  80.0775 280.0475 15.08836549144702,6917.891,95.438,541.337,538.175,0.0
50185.0,STARLINK-3279,PAYLOAD,2024-07-09 03:06:23,15.08836666,0.0001465,53.2178,101.0924,81.2672,278.8486,7.9124e-05,9.71e-06,0.0,0 STARLINK-3279,1 50185U 21125AF  24191.12943612  .00000971  00000-0  79124-4 0  9999,2 50185  53.2178 101.0924 0001465  81.2672 278.8486 15.08836666144254,6917.891,95.438,540.769,538.742,0.0
50185.0,STARLINK-3279,PAYLOAD,2024-07-09 22:11:01,15.08834687,0.0001299,53.2171,97.5243,89.46,270.6541,-2.7444e-05,-7.25e-06,0.0,0 STARLINK-3279,1 50185U 21125AF  24191.92432230 -.00000725  00000-0 -27444-4 0  9993,2 50185  53.2171  97.5243 0001299  89.4600 270.6541 15.08834687144855,6917.897,95.438,540.66,538.863,0.0
50185.0,STARLINK-3279,PAYLOAD,2024-07-10 10:54:05,15.08848724,0.0001374,53.2175,95.1438,80.8725,279.2423,1.9562e-05,2.3e-07,0.0,0 STARLINK-3279,1 50185U 21125AF  24192.45423203  .00000023  00000-0  19562-4 0  9993,2 50185  53.2175  95.1438 0001374  80.8725 279.2423 15.08848724144453,6917.854,95.437,540.669,538.768,0.0
50185.0,STARLINK-3279,PAYLOAD,2024-07-10 22:01:48,15.08815187,0.0001359,53.2176,93.0622,87.5434,272.5714,0.00035225,5.319e-05,0.0,0 STARLINK-3279,1 50185U 21125AF  24192.91792556  .00005319  00000-0  35225-3 0  9990,2 50185  53.2176  93.0622 0001359  87.5434 272.5714 15.08815187145008,6917.956,95.439,540.761,538.881,0.0
50185.0,STARLINK-3279,PAYLOAD,2024-07-10 23:37:10,15.0884311,0.0001278,53.2161,92.7664,108.3497,251.7634,6.6897e-05,7.77e-06,0.0,0 STARLINK-3279,1 50185U 21125AF  24192.98415390  .00000777  00000-0  66897-4 0  9998,2 50185  53.2161  92.7664 0001278 108.3497 251.7634 15.08843110144539,6917.871,95.437,540.62,538.852,0.0
50185.0,STARLINK-3279,PAYLOAD,2024-07-11 17:06:25,15.08823783,0.000135,53.2159,89.4947,90.0512,270.0635,0.00033244,5.005e-05,0.0,0 STARLINK-3279,1 50185U 21125AF  24193.71279491  .00005005  00000-0  33244-3 0  9998,2 50185  53.2159  89.4947 0001350  90.0512 270.0635 15.08823783144640,6917.93,95.439,540.729,538.861,0.0
50185.0,STARLINK-3279,PAYLOAD,2024-07-11 23:27:58,15.08841525,0.00015,53.217,88.3018,92.0125,268.1039,7.8632e-05,9.64e-06,0.0,0 STARLINK-3279,1 50185U 21125AF  24193.97775574  .00000964  00000-0  78632-4 0  9999,2 50185  53.2170  88.3018 0001500  92.0125 268.1039 15.08841525144683,6917.876,95.437,540.778,538.703,0.0
50185.0,STARLINK-3279,PAYLOAD,2024-07-12 23:18:45,15.08840975,0.0001256,53.2154,83.8419,93.943,266.1706,6.9288e-05,8.15e-06,0.0,0 STARLINK-3279,1 50185U 21125AF  24194.97135523  .00000815  00000-0  69288-4 0  9996,2 50185  53.2154  83.8419 0001256  93.9430 266.1706 15.08840975145315,6917.877,95.437,540.611,538.874,0.0
50185.0,STARLINK-3279,PAYLOAD,2024-07-13 21:34:09,15.08836742,0.0001297,53.2174,79.6809,92.3461,267.768,2.0504e-05,3.8e-07,0.0,0 STARLINK-3279,1 50185U 21125AF  24195.89871971  .00000038  00000-0  20504-4 0  9997,2 50185  53.2174  79.6809 0001297  92.3461 267.7680 15.08836742144971,6917.89,95.438,540.653,538.858,0.0
50185.0,STARLINK-3279,PAYLOAD,2024-07-13 23:09:32,15.08835192,0.0001183,53.2169,79.3856,81.1396,278.973,2.4875e-05,1.08e-06,0.0,0 STARLINK-3279,1 50185U 21125AF  24195.96496093  .00000108  00000-0  24875-4 0  9996,2 50185  53.2169  79.3856 0001183  81.1396 278.9730 15.08835192145464,6917.895,95.438,540.578,538.942,0.0
50185.0,STARLINK-3279,PAYLOAD,2024-07-14 08:41:50,15.08849932,0.0001291,53.2181,77.6,82.867,277.2469,0.00012583,1.716e-05,0.0,0 STARLINK-3279,1 50185U 21125AF  24196.36238801  .00001716  00000-0  12583-3 0  9990,2 50185  53.2181  77.6000 0001291  82.8670 277.2469 15.08849932145045,6917.85,95.437,540.608,538.822,0.0
50185.0,STARLINK-3279,PAYLOAD,2024-07-14 15:03:23,15.0884367,0.0001993,53.2169,76.4123,79.001,281.1206,7.2817e-05,8.71e-06,0.0,0 STARLINK-3279,1 50185U 21125AF  24196.62735565  .00000871  00000-0  72817-4 0  9996,2 50185  53.2169  76.4123 0001993  79.0010 281.1206 15.08843670145562,6917.869,95.437,541.113,538.355,0.0
50185.0,STARLINK-3279,PAYLOAD,2024-07-14 21:24:56,15.08833867,0.0001417,53.2181,75.2222,95.8953,264.2201,-9.0607e-06,-4.32e-06,0.0,0 STARLINK-3279,1 50185U 21125AF  24196.89232315 -.00000432  00000-0 -90607-5 0  9993,2 50185  53.2181  75.2222 0001417  95.8953 264.2201 15.08833867145122,6917.899,95.438,540.744,538.784,0.0
50185.0,STARLINK-3279,PAYLOAD,2024-07-15 08:32:37,15.08851167,0.0001292,53.2184,73.1386,89.8368,270.2772,0.00014105,1.958e-05,0.0,0 STARLINK-3279,1 50185U 21125AF  24197.35598726  .00001958  00000-0  14105-3 0  9995,2 50185  53.2184  73.1386 0001292  89.8368 270.2772 15.08851167145197,6917.846,95.437,540.605,538.817,0.0
50185.0,STARLINK-3279,PAYLOAD,2024-07-15 21:15:44,15.0882734,0.0001432,53.2182,70.7614,85.383,274.7326,-5.7029e-06,-3.79e-06,0.0,0 STARLINK-3279,1 50185U 21125AF  24197.88592935 -.00000379  00000-0 -57029-5 0  9991,2 50185  53.2182  70.7614 0001432  85.3830 274.7326 15.08827340145272,6917.919,95.438,540.775,538.793,0.0
50185.0,STARLINK-3279,PAYLOAD,2024-07-15 22:51:07,15.08829018,0.0001524,53.2185,70.4676,98.7711,261.3453,2.8544e-05,1.66e-06,0.0,0 STARLINK-3279,1 50185U 21125AF  24197.95216829  .00000166  00000-0  28544-4 0  9995,2 50185  53.2185  70.4676 0001524  98.7711 261.3453 15.08829018145769,6917.914,95.438,540.833,538.725,0.0
50185.0,STARLINK-3279,PAYLOAD,2024-07-16 21:06:30,15.08843232,0.0001374,53.2183,66.3021,95.0267,265.0882,0.00014835,2.074e-05,0.0,0 STARLINK-3279,1 50185U 21125AF  24198.87951769  .00002074  00000-0  14835-3 0  9993,2 50185  53.2183  66.3021 0001374  95.0267 265.0882 15.08843232145428,6917.871,95.437,540.686,538.785,0.0
50185.0,STARLINK-3279,PAYLOAD,2024-07-17 08:14:11,15.08853843,0.0001278,53.2166,64.2162,87.4066,272.7073,0.00014431,2.01e-05,0.0,0 STARLINK-3279,1 50185U 21125AF  24199.34318885  .00002010  00000-0  14431-3 0  9994,2 50185  53.2166  64.2162 0001278  87.4066 272.7073 15.08853843145490,6917.838,95.437,540.587,538.819,0.0
50185.0,STARLINK-3279,PAYLOAD,2024-07-17 20:57:18,15.08830532,0.0001365,53.2166,61.8364,83.7326,276.3821,-0.00015295,-2.721e-05,0.0,0 STARLINK-3279,1 50185U 21125AF  24199.87312605 -.00002721  00000-0 -15295-3 0  9996,2 50185  53.2166  61.8364 0001365  83.7326 276.3821 15.08830532145572,6917.909,95.438,540.719,538.83,0.0
50185.0,STARLINK-3279,PAYLOAD,2024-07-17 22:32:40,15.08839578,0.0001206,53.2173,61.5399,89.6914,270.4217,-7.4031e-06,-4.06e-06,0.0,0 STARLINK-3279,1 50185U 21125AF  24199.93936199 -.00000406  00000-0 -74031-5 0  9996,2 50185  53.2173  61.5399 0001206  89.6914 270.4217 15.08839578146065,6917.882,95.438,540.581,538.912,0.0
